STARLINK-36551          
1 67493U 26012A   26047.25002315 -.02532227  00000+0 -95882-1 0  9994
2 67493  42.9999  75.8679 0000374 294.3746 244.1244 15.29782979  5627
STARLINK-36396          
1 67494U 26012B   26046.46977864  .00098925  00000+0  16692-2 0  9998
2 67494  43.0007  80.7731 0000698 245.2475 114.8313 15.50607452  4352
STARLINK-36550          
1 67495U 26012C   26047.25002315 -.01819829  00000+0 -54205-1 0  9995
2 67495  42.9999  75.8948 0001165 290.3990 239.0215 15.37272366  5628
STARLINK-36534          
1 67496U 26012D   26047.25002315 -.01854528  00000+0 -61887-1 0  9995
2 67496  42.9999  75.7149 0000946 287.3648 313.7001 15.33827169  5562
STARLINK-36555          
1 67497U 26012E   26047.25002315 -.01843376  00000+0 -62197-1 0  9990
2 67497  43.0000  75.7451 0000974 287.7953 301.0211 15.33460324  5624
STARLINK-36081          
1 67498U 26012F   26047.25002315 -.01941960  00000+0 -52528-1 0  9996
2 67498  43.0003  75.8124 0000961 285.4303 276.8066 15.40412694  5561
STARLINK-36558          
1 67499U 26012G   26047.25002315 -.01948486  00000+0 -51229-1 0  9994
2 67499  43.0007  75.7887 0000754 284.9201 287.0205 15.41273084  5627
STARLINK-36557          
1 67500U 26012H   26047.25002315 -.01860195  00000+0 -66068-1 0  9994
2 67500  43.0002  75.5332 0001029 254.6740  58.9495 15.31877613  5629
STARLINK-36433          
1 67501U 26012J   26047.25002315 -.01809935  00000+0 -63396-1 0  9991
2 67501  43.0001  75.4849 0000822 264.3979  69.0519 15.32220272  5627
STARLINK-36554          
1 67502U 26012K   26047.25002315 -.01897789  00000+0 -51344-1 0  9996
2 67502  42.9998  75.5507 0000945 272.6207  35.6713 15.40326090  5567
STARLINK-36552          
1 67503U 26012L   26047.25002315 -.01871071  00000+0 -63626-1 0  9999
2 67503  43.0001  75.3560 0001270 264.0292 121.4633 15.33266750  5623
STARLINK-36512          
1 67504U 26012M   26047.25002315 -.01874548  00000+0 -55320-1 0  9994
2 67504  43.0002  75.3374 0001264 273.7717 120.0125 15.37655500  5620
