CCSDS_OMM_VERS = 2.0
CREATION_DATE  = 
ORIGINATOR     = 

OBJECT_NAME    = STARLINK-36551
OBJECT_ID      = 2026-012A
CENTER_NAME    = EARTH
REF_FRAME      = TEME
TIME_SYSTEM    = UTC
MEAN_ELEMENT_THEORY = SGP/SGP4

EPOCH          = 2026-02-16T06:00:02.000160
MEAN_MOTION    = 15.29782979
ECCENTRICITY   = .00003748
INCLINATION    = 42.9999
RA_OF_ASC_NODE = 75.8679
ARG_OF_PERICENTER = 294.3746
MEAN_ANOMALY   = 244.1244

EPHEMERIS_TYPE = 0
CLASSIFICATION_TYPE = U
NORAD_CAT_ID   = 67493
ELEMENT_SET_NO = 999
REV_AT_EPOCH   = 562
BSTAR          = -.95882358E-1
MEAN_MOTION_DOT = -.2532227E-1
MEAN_MOTION_DDOT = 0

CCSDS_OMM_VERS = 2.0
CREATION_DATE  = 
ORIGINATOR     = 

OBJECT_NAME    = STARLINK-36396
OBJECT_ID      = 2026-012B
CENTER_NAME    = EARTH
REF_FRAME      = TEME
TIME_SYSTEM    = UTC
MEAN_ELEMENT_THEORY = SGP/SGP4

EPOCH          = 2026-02-15T11:16:28.874496
MEAN_MOTION    = 15.50607452
ECCENTRICITY   = .00006982
INCLINATION    = 43.0007
RA_OF_ASC_NODE = 80.7731
ARG_OF_PERICENTER = 245.2475
MEAN_ANOMALY   = 114.8313

EPHEMERIS_TYPE = 0
CLASSIFICATION_TYPE = U
NORAD_CAT_ID   = 67494
ELEMENT_SET_NO = 999
REV_AT_EPOCH   = 435
BSTAR          = .16691545E-2
MEAN_MOTION_DOT = .98925E-3
MEAN_MOTION_DDOT = 0

CCSDS_OMM_VERS = 2.0
CREATION_DATE  = 
ORIGINATOR     = 

OBJECT_NAME    = STARLINK-36550
OBJECT_ID      = 2026-012C
CENTER_NAME    = EARTH
REF_FRAME      = TEME
TIME_SYSTEM    = UTC
MEAN_ELEMENT_THEORY = SGP/SGP4

EPOCH          = 2026-02-16T06:00:02.000160
MEAN_MOTION    = 15.37272366
ECCENTRICITY   = .00011657
INCLINATION    = 42.9999
RA_OF_ASC_NODE = 75.8948
ARG_OF_PERICENTER = 290.3990
MEAN_ANOMALY   = 239.0215

EPHEMERIS_TYPE = 0
CLASSIFICATION_TYPE = U
NORAD_CAT_ID   = 67495
ELEMENT_SET_NO = 999
REV_AT_EPOCH   = 562
BSTAR          = -.54204769E-1
MEAN_MOTION_DOT = -.1819829E-1
MEAN_MOTION_DDOT = 0

CCSDS_OMM_VERS = 2.0
CREATION_DATE  = 
ORIGINATOR     = 

OBJECT_NAME    = STARLINK-36534
OBJECT_ID      = 2026-012D
CENTER_NAME    = EARTH
REF_FRAME      = TEME
TIME_SYSTEM    = UTC
MEAN_ELEMENT_THEORY = SGP/SGP4

EPOCH          = 2026-02-16T06:00:02.000160
MEAN_MOTION    = 15.33827169
ECCENTRICITY   = .0000946
INCLINATION    = 42.9999
RA_OF_ASC_NODE = 75.7149
ARG_OF_PERICENTER = 287.3648
MEAN_ANOMALY   = 313.7001

EPHEMERIS_TYPE = 0
CLASSIFICATION_TYPE = U
NORAD_CAT_ID   = 67496
ELEMENT_SET_NO = 999
REV_AT_EPOCH   = 556
BSTAR          = -.61886661E-1
MEAN_MOTION_DOT = -.1854528E-1
MEAN_MOTION_DDOT = 0

CCSDS_OMM_VERS = 2.0
CREATION_DATE  = 
ORIGINATOR     = 

OBJECT_NAME    = STARLINK-36555
OBJECT_ID      = 2026-012E
CENTER_NAME    = EARTH
REF_FRAME      = TEME
TIME_SYSTEM    = UTC
MEAN_ELEMENT_THEORY = SGP/SGP4

EPOCH          = 2026-02-16T06:00:02.000160
MEAN_MOTION    = 15.33460324
ECCENTRICITY   = .00009744
INCLINATION    = 43.0000
RA_OF_ASC_NODE = 75.7451
ARG_OF_PERICENTER = 287.7953
MEAN_ANOMALY   = 301.0211

EPHEMERIS_TYPE = 0
CLASSIFICATION_TYPE = U
NORAD_CAT_ID   = 67497
ELEMENT_SET_NO = 999
REV_AT_EPOCH   = 562
BSTAR          = -.62196901E-1
MEAN_MOTION_DOT = -.1843376E-1
MEAN_MOTION_DDOT = 0

CCSDS_OMM_VERS = 2.0
CREATION_DATE  = 
ORIGINATOR     = 

OBJECT_NAME    = STARLINK-36081
OBJECT_ID      = 2026-012F
CENTER_NAME    = EARTH
REF_FRAME      = TEME
TIME_SYSTEM    = UTC
MEAN_ELEMENT_THEORY = SGP/SGP4

EPOCH          = 2026-02-16T06:00:02.000160
MEAN_MOTION    = 15.40412694
ECCENTRICITY   = .00009617
INCLINATION    = 43.0003
RA_OF_ASC_NODE = 75.8124
ARG_OF_PERICENTER = 285.4303
MEAN_ANOMALY   = 276.8066

EPHEMERIS_TYPE = 0
CLASSIFICATION_TYPE = U
NORAD_CAT_ID   = 67498
ELEMENT_SET_NO = 999
REV_AT_EPOCH   = 556
BSTAR          = -.52527672E-1
MEAN_MOTION_DOT = -.194196E-1
MEAN_MOTION_DDOT = 0

CCSDS_OMM_VERS = 2.0
CREATION_DATE  = 
ORIGINATOR     = 

OBJECT_NAME    = STARLINK-36558
OBJECT_ID      = 2026-012G
CENTER_NAME    = EARTH
REF_FRAME      = TEME
TIME_SYSTEM    = UTC
MEAN_ELEMENT_THEORY = SGP/SGP4

EPOCH          = 2026-02-16T06:00:02.000160
MEAN_MOTION    = 15.41273084
ECCENTRICITY   = .0000754
INCLINATION    = 43.0007
RA_OF_ASC_NODE = 75.7887
ARG_OF_PERICENTER = 284.9201
MEAN_ANOMALY   = 287.0205

EPHEMERIS_TYPE = 0
CLASSIFICATION_TYPE = U
NORAD_CAT_ID   = 67499
ELEMENT_SET_NO = 999
REV_AT_EPOCH   = 562
BSTAR          = -.51228653E-1
MEAN_MOTION_DOT = -.1948486E-1
MEAN_MOTION_DDOT = 0

CCSDS_OMM_VERS = 2.0
CREATION_DATE  = 
ORIGINATOR     = 

OBJECT_NAME    = STARLINK-36557
OBJECT_ID      = 2026-012H
CENTER_NAME    = EARTH
REF_FRAME      = TEME
TIME_SYSTEM    = UTC
MEAN_ELEMENT_THEORY = SGP/SGP4

EPOCH          = 2026-02-16T06:00:02.000160
MEAN_MOTION    = 15.31877613
ECCENTRICITY   = .00010299
INCLINATION    = 43.0002
RA_OF_ASC_NODE = 75.5332
ARG_OF_PERICENTER = 254.6740
MEAN_ANOMALY   = 58.9495

EPHEMERIS_TYPE = 0
CLASSIFICATION_TYPE = U
NORAD_CAT_ID   = 67500
ELEMENT_SET_NO = 999
REV_AT_EPOCH   = 562
BSTAR          = -.66068019E-1
MEAN_MOTION_DOT = -.1860195E-1
MEAN_MOTION_DDOT = 0

CCSDS_OMM_VERS = 2.0
CREATION_DATE  = 
ORIGINATOR     = 

OBJECT_NAME    = STARLINK-36433
OBJECT_ID      = 2026-012J
CENTER_NAME    = EARTH
REF_FRAME      = TEME
TIME_SYSTEM    = UTC
MEAN_ELEMENT_THEORY = SGP/SGP4

EPOCH          = 2026-02-16T06:00:02.000160
MEAN_MOTION    = 15.32220272
ECCENTRICITY   = .00008224
INCLINATION    = 43.0001
RA_OF_ASC_NODE = 75.4849
ARG_OF_PERICENTER = 264.3979
MEAN_ANOMALY   = 69.0519

EPHEMERIS_TYPE = 0
CLASSIFICATION_TYPE = U
NORAD_CAT_ID   = 67501
ELEMENT_SET_NO = 999
REV_AT_EPOCH   = 562
BSTAR          = -.63396242E-1
MEAN_MOTION_DOT = -.1809935E-1
MEAN_MOTION_DDOT = 0

CCSDS_OMM_VERS = 2.0
CREATION_DATE  = 
ORIGINATOR     = 

OBJECT_NAME    = STARLINK-36554
OBJECT_ID      = 2026-012K
CENTER_NAME    = EARTH
REF_FRAME      = TEME
TIME_SYSTEM    = UTC
MEAN_ELEMENT_THEORY = SGP/SGP4

EPOCH          = 2026-02-16T06:00:02.000160
MEAN_MOTION    = 15.40326090
ECCENTRICITY   = .00009457
INCLINATION    = 42.9998
RA_OF_ASC_NODE = 75.5507
ARG_OF_PERICENTER = 272.6207
MEAN_ANOMALY   = 35.6713

EPHEMERIS_TYPE = 0
CLASSIFICATION_TYPE = U
NORAD_CAT_ID   = 67502
ELEMENT_SET_NO = 999
REV_AT_EPOCH   = 556
BSTAR          = -.51343875E-1
MEAN_MOTION_DOT = -.1897789E-1
MEAN_MOTION_DDOT = 0

CCSDS_OMM_VERS = 2.0
CREATION_DATE  = 
ORIGINATOR     = 

OBJECT_NAME    = STARLINK-36552
OBJECT_ID      = 2026-012L
CENTER_NAME    = EARTH
REF_FRAME      = TEME
TIME_SYSTEM    = UTC
MEAN_ELEMENT_THEORY = SGP/SGP4

EPOCH          = 2026-02-16T06:00:02.000160
MEAN_MOTION    = 15.33266750
ECCENTRICITY   = .00012707
INCLINATION    = 43.0001
RA_OF_ASC_NODE = 75.3560
ARG_OF_PERICENTER = 264.0292
MEAN_ANOMALY   = 121.4633

EPHEMERIS_TYPE = 0
CLASSIFICATION_TYPE = U
NORAD_CAT_ID   = 67503
ELEMENT_SET_NO = 999
REV_AT_EPOCH   = 562
BSTAR          = -.63626085E-1
MEAN_MOTION_DOT = -.1871071E-1
MEAN_MOTION_DDOT = 0

CCSDS_OMM_VERS = 2.0
CREATION_DATE  = 
ORIGINATOR     = 

OBJECT_NAME    = STARLINK-36512
OBJECT_ID      = 2026-012M
CENTER_NAME    = EARTH
REF_FRAME      = TEME
TIME_SYSTEM    = UTC
MEAN_ELEMENT_THEORY = SGP/SGP4

EPOCH          = 2026-02-16T06:00:02.000160
MEAN_MOTION    = 15.37655500
ECCENTRICITY   = .0001264
INCLINATION    = 43.0002
RA_OF_ASC_NODE = 75.3374
ARG_OF_PERICENTER = 273.7717
MEAN_ANOMALY   = 120.0125

EPHEMERIS_TYPE = 0
CLASSIFICATION_TYPE = U
NORAD_CAT_ID   = 67504
ELEMENT_SET_NO = 999
REV_AT_EPOCH   = 562
BSTAR          = -.55320298E-1
MEAN_MOTION_DOT = -.1874548E-1
MEAN_MOTION_DDOT = 0

